{
  "norad_id": 62440,
  "name": "STARLINK-32689",
  "history": [
    {
      "epoch": "2026-03-28T16:47:30.260256Z",
      "apogee_km": 475.70646364307777,
      "perigee_km": 474.6813424066031,
      "latitude_deg": 6.417754087749475e-05,
      "longitude_deg": 168.67441534942512,
      "height_km": 475.95395380983996,
      "semi_major_axis_km": 6853.33090302484,
      "eccentricity": 7.479e-05,
      "inclination_deg": 53.1615,
      "raan_deg": 246.6668,
      "arg_perigee_deg": 74.2749,
      "mean_anomaly_deg": 285.8335,
      "mean_motion_rev_day": 15.30207089
    }
  ]
}